[{"name": "STARLINK-1008", "line1": "1 44714U 19074B   26143.52701378  .00012671  00000+0  25570-3 0  9998", "line2": "2 44714  53.1534 186.5120 0002739  35.8894 324.2297 15.46922298360392"}, {"name": "STARLINK-1012", "line1": "1 44718U 19074F   26143.52742391  .00012376  00000+0  24819-3 0  9999", "line2": "2 44718  53.1574 186.8153 0002521  29.6222 330.4929 15.47131525360380"}, {"name": "STARLINK-1017", "line1": "1 44723U 19074L   26143.40072742  .00024939  00000+0  85288-3 0  9993", "line2": "2 44723  53.0463 185.0419 0005079 347.0914  12.9954 15.30129814360384"}, {"name": "STARLINK-1020", "line1": "1 44725U 19074N   26143.47127804  .00050664  00000+0  82651-3 0  9997", "line2": "2 44725  53.1580 211.7009 0003635  14.4908 345.6206 15.52114684360012"}, {"name": "STARLINK-1036", "line1": "1 44741U 19074AE  26143.49597205  .00037363  00000+0  34262-3 0  9999", "line2": "2 44741  53.0421 182.5659 0002890 323.7038  36.3781 15.67401565360421"}, {"name": "STARLINK-1039", "line1": "1 44744U 19074AH  26143.46811212  .00023474  00000+0  87242-3 0  9990", "line2": "2 44744  53.0574 229.8007 0002773   3.3016 356.8000 15.27445517359762"}, {"name": "STARLINK-1042", "line1": "1 44747U 19074AL  26143.36575181  .00020074  00000+0  31961-3 0  9994", "line2": "2 44747  53.0417  95.4677 0003545  58.0348 302.1005 15.53286548361661"}, {"name": "STARLINK-1043", "line1": "1 44748U 19074AM  26143.40399789  .00034175  00000+0  40034-3 0  9996", "line2": "2 44748  53.0496 192.5426 0001150  69.5304 290.5832 15.61232112360281"}, {"name": "STARLINK-1046", "line1": "1 44751U 19074AQ  26143.48758603  .00046923  00000+0  73912-3 0  9997", "line2": "2 44751  53.0473 212.8490 0006860  13.7668 346.3527 15.53103643360002"}, {"name": "STARLINK-1047", "line1": "1 44752U 19074AR  26143.32002226  .00006815  00000+0  21497-3 0  9991", "line2": "2 44752  53.0682 156.9251 0003584  85.2000 274.9410 15.34050278360799"}, {"name": "STARLINK-1048", "line1": "1 44753U 19074AS  26143.34340907  .00037618  00000+0  37034-3 0  9994", "line2": "2 44753  53.0446 165.1121 0007189   6.1421 353.9681 15.65604988360650"}, {"name": "STARLINK-1063", "line1": "1 44768U 19074BH  26143.47491916  .00024727  00000+0  49078-3 0  9999", "line2": "2 44768  53.1561 227.7769 0001315  24.6012 335.5059 15.46886453359824"}, {"name": "STARLINK-1067", "line1": "1 44771U 19074BL  26143.40799227  .00054145  00000+0  40487-3 0  9994", "line2": "2 44771  53.0424 197.4306 0006649 333.4290  26.6386 15.72151178360213"}, {"name": "STARLINK-1068", "line1": "1 44772U 19074BM  26143.48333788  .00050832  00000+0  36884-3 0  9994", "line2": "2 44772  53.0426 170.7908 0002432  60.0631 300.0628 15.72910201360584"}, {"name": "STARLINK-1114", "line1": "1 44927U 20001P   26143.53059750  .00076354  00000+0  82624-3 0  9998", "line2": "2 44927  53.0425 326.4942 0000929 354.5259   5.5744 15.62928110351751"}, {"name": "STARLINK-1123", "line1": "1 44930U 20001S   26143.49521175  .00057000  00000+0  82461-3 0  9998", "line2": "2 44930  53.1463 352.6337 0002593 223.9929 136.0876 15.55379599351398"}, {"name": "STARLINK-1094", "line1": "1 44941U 20001AD  26143.48525241  .00059773  00000+0  97315-3 0  9990", "line2": "2 44941  53.1545 327.3146 0002377 267.2615  92.8123 15.52103371351755"}, {"name": "STARLINK-1122", "line1": "1 44949U 20001AM  26142.52688076  .00057425  00000+0  94830-3 0  9999", "line2": "2 44949  53.1579 332.4808 0001761 256.9489 103.1325 15.51724651351593"}, {"name": "STARLINK-1080", "line1": "1 44961U 20001AZ  26143.58336806  .01080787  00000+0  10893-1 0  9994", "line2": "2 44961  53.0452 286.8664 0000995  87.9983  36.1853 15.62326121  5888"}, {"name": "STARLINK-1090", "line1": "1 44968U 20001BG  26143.50827667  .00048947  00000+0  91364-3 0  9998", "line2": "2 44968  53.1504 315.1054 0001065 274.0728  86.0159 15.48320174351926"}, {"name": "STARLINK-1132", "line1": "1 45044U 20006A   26143.53312440  .00052434  00000+0  81898-3 0  9997", "line2": "2 45044  53.1514 256.5760 0001519 336.4826  23.6115 15.53313280348528"}, {"name": "STARLINK-1131", "line1": "1 45047U 20006D   26143.38700508  .00065637  00000+0  11416-2 0  9996", "line2": "2 45047  53.1549 289.7528 0002273 319.8982  40.1859 15.50205184348041"}, {"name": "STARLINK-1134", "line1": "1 45048U 20006E   26143.54743697  .00083588  00000+0  12433-2 0  9996", "line2": "2 45048  53.0268 239.6199 0006835  17.1865 342.9374 15.54433448348745"}, {"name": "STARLINK-1156", "line1": "1 45054U 20006L   26142.90627019  .00035686  00000+0  10894-2 0  9996", "line2": "2 45054  53.1572 295.7334 0001863 295.0441  65.0367 15.33601166347912"}, {"name": "STARLINK-1166", "line1": "1 45060U 20006S   26143.50603205  .00062785  00000+0  86316-3 0  9994", "line2": "2 45060  53.0462 273.0016 0002785 313.2062  46.8716 15.56716928348271"}, {"name": "STARLINK-1169", "line1": "1 45061U 20006T   26142.84330711  .00041127  00000+0  11390-2 0  9996", "line2": "2 45061  53.1558 294.9761 0003189 246.4765 113.5903 15.36594968347921"}, {"name": "STARLINK-1171", "line1": "1 45062U 20006U   26143.53995972  .00049949  00000+0  37441-3 0  9996", "line2": "2 45062  53.0414 240.4373 0001795 291.4010  68.6816 15.72151213348736"}, {"name": "STARLINK-1133", "line1": "1 45064U 20006W   26143.52884025  .00019619  00000+0  60558-3 0  9999", "line2": "2 45064  53.1569 269.6041 0003152 309.2681  50.8041 15.33584249348342"}, {"name": "STARLINK-1167", "line1": "1 45071U 20006AD  26143.55478517  .00036706  00000+0  10420-2 0  9993", "line2": "2 45071  53.1583 268.8039 0002807 254.8637 105.2056 15.35876662348353"}, {"name": "STARLINK-1168", "line1": "1 45072U 20006AE  26143.50982762  .00039063  00000+0  11860-2 0  9999", "line2": "2 45072  53.1562 269.9029 0002206 320.4156  39.6685 15.33732433348332"}, {"name": "STARLINK-1172", "line1": "1 45074U 20006AG  26143.52233926  .00036515  00000+0  10043-2 0  9995", "line2": "2 45074  53.1536 268.4047 0002552 268.4063  91.6648 15.36867258348357"}, {"name": "STARLINK-1153", "line1": "1 45080U 20006AN  26143.53820502  .00034571  00000+0  98147-3 0  9997", "line2": "2 45080  53.1584 268.7980 0003333 272.6838  87.3783 15.35902019348357"}, {"name": "STARLINK-1151", "line1": "1 45081U 20006AP  26143.47772750  .00060522  00000+0  39346-3 0  9993", "line2": "2 45081  53.0481 229.8159 0003184 311.5105  48.5640 15.75389294348879"}, {"name": "STARLINK-1185", "line1": "1 45087U 20006AV  26143.50306352  .00043739  00000+0  94424-3 0  9993", "line2": "2 45087  53.1589 249.9928 0003818 325.6878  34.3881 15.44125989348616"}, {"name": "STARLINK-1183", "line1": "1 45088U 20006AW  26143.48744336  .00031313  00000+0  95883-3 0  9994", "line2": "2 45088  53.1569 254.5974 0002756 334.6079  25.4787 15.33567177348546"}, {"name": "STARLINK-1152", "line1": "1 45096U 20006BE  26143.47727152  .00041519  00000+0  81559-3 0  9993", "line2": "2 45096  53.0325 211.3092 0003923  16.9637 343.1499 15.46911634349134"}, {"name": "STARLINK-1184", "line1": "1 45098U 20006BG  26143.49050198  .00016310  00000+0  91377-3 0  9996", "line2": "2 45098  53.0519 266.6741 0003631   1.8876 358.2129 15.13549711348356"}, {"name": "STARLINK-1193", "line1": "1 45100U 20006BJ  26143.52965852  .00037291  00000+0  35815-3 0  9992", "line2": "2 45100  53.0467 224.9999 0003681 281.8933  78.1669 15.66250374348947"}, {"name": "STARLINK-1143", "line1": "1 45179U 20012B   26143.58336806  .00116271  00000+0  52037-3 0  9993", "line2": "2 45179  53.0377 318.0610 0003076 301.6423 236.5114 15.83370120  5891"}, {"name": "STARLINK-1202", "line1": "1 45183U 20012F   26143.16963326  .00034494  00000+0  10640-2 0  9994", "line2": "2 45183  53.1559  52.8189 0002922 111.3707 248.7607 15.33287038346365"}, {"name": "STARLINK-1216", "line1": "1 45185U 20012H   26143.15168570  .00038919  00000+0  11882-2 0  9998", "line2": "2 45185  53.1570  52.7912 0002948 111.1695 248.9623 15.33555182346307"}, {"name": "STARLINK-1225", "line1": "1 45187U 20012K   26143.47578882  .00012461  00000+0  39032-3 0  9998", "line2": "2 45187  53.1575  51.7363 0002599 104.1879 255.9412 15.33488539346395"}, {"name": "STARLINK-1230", "line1": "1 45189U 20012M   26143.02972975  .00032979  00000+0  10129-2 0  9993", "line2": "2 45189  53.1560  53.8799 0002944 111.3793 248.7523 15.33445000343550"}, {"name": "STARLINK-1234", "line1": "1 45190U 20012N   26142.91777075  .00056117  00000+0  42233-3 0  9998", "line2": "2 45190  53.0403 319.4459 0006713 174.8325 185.2763 15.71982697347526"}, {"name": "STARLINK-1269", "line1": "1 45197U 20012V   26143.48182109  .00028429  00000+0  87442-3 0  9992", "line2": "2 45197  53.1570  51.6197 0003105  79.2971 280.8381 15.33475138346375"}, {"name": "STARLINK-1154", "line1": "1 45198U 20012W   26143.58336806  .00262768  00000+0  28450-2 0  9998", "line2": "2 45198  53.0433   9.3956 0000614  90.9562 351.1518 15.62192617  5875"}, {"name": "STARLINK-1199", "line1": "1 45201U 20012Z   26143.12666210  .00036483  00000+0  11192-2 0  9996", "line2": "2 45201  53.1573  37.5416 0002568 130.1491 229.9736 15.33433707346562"}, {"name": "STARLINK-1209", "line1": "1 45206U 20012AE  26143.54980862  .00037829  00000+0  40031-3 0  9999", "line2": "2 45206  53.0404 329.9895 0010322 163.9462 196.1881 15.63742975346588"}, {"name": "STARLINK-1231", "line1": "1 45212U 20012AL  26142.97397089  .00020754  00000+0  79110-3 0  9994", "line2": "2 45212  53.0386  32.9672 0003743  54.2219 305.9126 15.26680535346550"}, {"name": "STARLINK-1271", "line1": "1 45217U 20012AR  26143.12602706  .00034772  00000+0  10633-2 0  9991", "line2": "2 45217  53.1574  37.6846 0002234 115.7973 244.3260 15.33560587346562"}, {"name": "STARLINK-1191", "line1": "1 45222U 20012AW  26143.34098560  .00046399  00000+0  12520-2 0  9993", "line2": "2 45222  53.1571  10.1179 0004291 133.0922 227.0441 15.37343470346970"}, {"name": "STARLINK-1212", "line1": "1 45223U 20012AX  26143.51672594  .00039795  00000+0  39559-3 0  9992", "line2": "2 45223  53.0414 345.9042 0003714 103.2760 256.8669 15.65356188347314"}]